2023-104A               
1 57424U 23104A   26065.78279804  .00015492  00000+0  48200-3 0  9993
2 57424  97.2792 135.5625 0009333 122.1915 238.0234 15.33350758146346
STARLINK-34334          
1 64273U 25120T   26068.44854422  .00025378  00000+0  86638-3 0  9995
2 64273  53.1603 117.4995 0001514  66.6035 293.5125 15.30187106 43887
